start=new Date('2022-05-24T00:00:00.000Z').valueOf();
sats=[{"SITE":"AFETR","EPOCH":"2022-05-23T06:27:07.014816","APOAPSIS":"548.419","INCLINATION":"53.0542","TIME_SYSTEM":"UTC","NORAD_CAT_ID":"47600","TLE_LINE1":"1 47600U 21009BE  22143.26883119  .00001047  00000-0  89194-4 0  9996","GP_ID":"204329988","SEMIMAJOR_AXIS":"6925.361","MEAN_ANOMALY":"301.9433","CLASSIFICATION_TYPE":"U","LAUNCH_DATE":"2021-02-04","RA_OF_ASC_NODE":"105.4771","CENTER_NAME":"EARTH","BSTAR":"0.00008919400000","ECCENTRICITY":"0.00017230","PERIAPSIS":"546.032","REF_FRAME":"TEME","ARG_OF_PERICENTER":"58.1724","OBJECT_TYPE":"PAYLOAD","MEAN_MOTION":"15.06396086","OBJECT_ID":"2021-009BE","MEAN_MOTION_DDOT":"0.0000000000000","REV_AT_EPOCH":"7211","DECAY_DATE":null,"COUNTRY_CODE":"US","ELEMENT_SET_NO":"999","FILE":"3460386","TLE_LINE2":"2 47600  53.0542 105.4771 0001723  58.1724 301.9433 15.06396086 72111","MEAN_MOTION_DOT":"0.00001047","EPHEMERIS_TYPE":"0","MEAN_ELEMENT_THEORY":"SGP4","PERIOD":"95.592","RCS_SIZE":"LARGE","OBJECT_NAME":"STARLINK-2005"},{"GP_ID":"204364354","TLE_LINE1":"1 47601U 21009BF  22143.57845075 -.00001403  00000-0 -75341-4 0  9997","NORAD_CAT_ID":"47601","APOAPSIS":"548.636","TIME_SYSTEM":"UTC","INCLINATION":"53.0559","EPOCH":"2022-05-23T13:52:58.144800","SITE":"AFETR","BSTAR":"-0.00007534100000","MEAN_ANOMALY":"307.5906","CLASSIFICATION_TYPE":"U","CENTER_NAME":"EARTH","RA_OF_ASC_NODE":"104.1245","LAUNCH_DATE":"2021-02-04","SEMIMAJOR_AXIS":"6925.381","MEAN_MOTION":"15.06389304","OBJECT_TYPE":"PAYLOAD","PERIAPSIS":"545.857","ARG_OF_PERICENTER":"52.5265","REF_FRAME":"TEME","ECCENTRICITY":"0.00020060","RCS_SIZE":"LARGE","OBJECT_NAME":"STARLINK-2006","PERIOD":"95.593","ELEMENT_SET_NO":"999","MEAN_ELEMENT_THEORY":"SGP4","EPHEMERIS_TYPE":"0","FILE":"3460905","TLE_LINE2":"2 47601  53.0559 104.1245 0002006  52.5265 307.5906 15.06389304 72151","MEAN_MOTION_DOT":"-0.00001403","OBJECT_ID":"2021-009BF","MEAN_MOTION_DDOT":"0.0000000000000","COUNTRY_CODE":"US","DECAY_DATE":null,"REV_AT_EPOCH":"7215"},{"MEAN_MOTION_DDOT":"0.0000000000000","OBJECT_ID":"2021-009BG","COUNTRY_CODE":"US","DECAY_DATE":null,"REV_AT_EPOCH":"7198","ELEMENT_SET_NO":"999","EPHEMERIS_TYPE":"0","MEAN_ELEMENT_THEORY":"SGP4","FILE":"3460386","TLE_LINE2":"2 47602  53.0569 114.9202 0002079  45.8513 314.2646 15.06398528 71980","MEAN_MOTION_DOT":"-0.00000399","PERIOD":"95.592","RCS_SIZE":"LARGE","OBJECT_NAME":"STARLINK-2007","ECCENTRICITY":"0.00020790","PERIAPSIS":"545.778","ARG_OF_PERICENTER":"45.8513","REF_FRAME":"TEME","OBJECT_TYPE":"PAYLOAD","MEAN_MOTION":"15.06398528","SEMIMAJOR_AXIS":"6925.353","MEAN_ANOMALY":"314.2646","CLASSIFICATION_TYPE":"U","CENTER_NAME":"EARTH","RA_OF_ASC_NODE":"114.9202","LAUNCH_DATE":"2021-02-04","BSTAR":"-0.00000788220000","EPOCH":"2022-05-23T09:36:51.446880","SITE":"AFETR","APOAPSIS":"548.658","TIME_SYSTEM":"UTC","INCLINATION":"53.0569","NORAD_CAT_ID":"47602","GP_ID":"204328986","TLE_LINE1":"1 47602U 21009BG  22143.40059545 -.00000399  00000-0 -78822-5 0  9990"},{"MEAN_MOTION":"15.06392213","OBJECT_TYPE":"PAYLOAD","PERIAPSIS":"545.647","REF_FRAME":"TEME","ARG_OF_PERICENTER":"39.6297","ECCENTRICITY":"0.00022970","RCS_SIZE":"LARGE","OBJECT_NAME":"STARLINK-2008","PERIOD":"95.593","ELEMENT_SET_NO":"999","TLE_LINE2":"2 47603  53.0553 144.5624 0002297  39.6297 320.4859 15.06392213 71578","FILE":"3460386","MEAN_MOTION_DOT":"-0.00000078","EPHEMERIS_TYPE":"0","MEAN_ELEMENT_THEORY":"SGP4","OBJECT_ID":"2021-009BH","MEAN_MOTION_DDOT":"0.0000000000000","REV_AT_EPOCH":"7157","COUNTRY_CODE":"US","DECAY_DATE":null,"TLE_LINE1":"1 47603U 21009BH  22143.47893928 -.00000078  00000-0  13692-4 0  9995","GP_ID":"204329738","NORAD_CAT_ID":"47603","APOAPSIS":"548.828","INCLINATION":"53.0553","TIME_SYSTEM":"UTC","SITE":"AFETR","EPOCH":"2022-05-23T11:29:40.353792","BSTAR":"0.00001369200000","CLASSIFICATION_TYPE":"U","MEAN_ANOMALY":"320.4859","RA_OF_ASC_NODE":"144.5624","LAUNCH_DATE":"2021-02-04","CENTER_NAME":"EARTH","SEMIMAJOR_AXIS":"6925.372"},{"ECCENTRICITY":"0.00020440","PERIAPSIS":"545.823","ARG_OF_PERICENTER":"40.6464","REF_FRAME":"TEME","OBJECT_TYPE":"PAYLOAD","MEAN_MOTION":"15.06391932","OBJECT_ID":"2021-009BJ","MEAN_MOTION_DDOT":"0.0000000000000","COUNTRY_CODE":"US","DECAY_DATE":null,"REV_AT_EPOCH":"7202","ELEMENT_SET_NO":"999","MEAN_ELEMENT_THEORY":"SGP4","EPHEMERIS_TYPE":"0","TLE_LINE2":"2 47604  53.0555 113.9828 0002044  40.6464 319.4677 15.06391932 72029","FILE":"3460905","MEAN_MOTION_DOT":"-0.00000963","PERIOD":"95.593","RCS_SIZE":"LARGE","OBJECT_NAME":"STARLINK-2021","EPOCH":"2022-05-23T14:34:06.026880","SITE":"AFETR","APOAPSIS":"548.654","TIME_SYSTEM":"UTC","INCLINATION":"53.0555","NORAD_CAT_ID":"47604","TLE_LINE1":"1 47604U 21009BJ  22143.60701420 -.00000963  00000-0 -45767-4 0  9998","GP_ID":"204366103","SEMIMAJOR_AXIS":"6925.373","CLASSIFICATION_TYPE":"U","MEAN_ANOMALY":"319.4677","CENTER_NAME":"EARTH","LAUNCH_DATE":"2021-02-04","RA_OF_ASC_NODE":"113.9828","BSTAR":"-0.00004576700000"},{"TLE_LINE2":"2 47605  53.0470  39.2187 0004118 164.4368 195.6785 15.90618519 73083","FILE":"3460905","MEAN_MOTION_DOT":"-0.00024571","EPHEMERIS_TYPE":"0","MEAN_ELEMENT_THEORY":"SGP4","ELEMENT_SET_NO":"999","REV_AT_EPOCH":"7308","DECAY_DATE":null,"COUNTRY_CODE":"US","MEAN_MOTION_DDOT":"0.0000112020000","OBJECT_ID":"2021-009BK","RCS_SIZE":"LARGE","OBJECT_NAME":"STARLINK-2023","PERIOD":"90.531","REF_FRAME":"TEME","ARG_OF_PERICENTER":"164.4368","PERIAPSIS":"297.803","ECCENTRICITY":"0.00041180","MEAN_MOTION":"15.90618519","OBJECT_TYPE":"PAYLOAD","SEMIMAJOR_AXIS":"6678.688","BSTAR":"-0.00006647600000","LAUNCH_DATE":"2021-02-04","RA_OF_ASC_NODE":"39.2187","CENTER_NAME":"EARTH","MEAN_ANOMALY":"195.6785","CLASSIFICATION_TYPE":"U","INCLINATION":"53.0470","TIME_SYSTEM":"UTC","APOAPSIS":"303.303","SITE":"AFETR","EPOCH":"2022-05-23T20:37:05.120256","GP_ID":"204364854","TLE_LINE1":"1 47605U 21009BK  22143.85908704 -.00024571  11202-4 -66476-4 0  9991","NORAD_CAT_ID":"47605"},{"OBJECT_TYPE":"PAYLOAD","MEAN_MOTION":"15.06386843","ECCENTRICITY":"0.00017980","PERIAPSIS":"546.009","ARG_OF_PERICENTER":"50.2632","REF_FRAME":"TEME","PERIOD":"95.593","OBJECT_NAME":"STARLINK-2024","RCS_SIZE":"LARGE","MEAN_MOTION_DDOT":"0.0000000000000","OBJECT_ID":"2021-009BL","DECAY_DATE":null,"COUNTRY_CODE":"US","REV_AT_EPOCH":"7199","ELEMENT_SET_NO":"999","EPHEMERIS_TYPE":"0","MEAN_ELEMENT_THEORY":"SGP4","FILE":"3460386","TLE_LINE2":"2 47606  53.0557 114.8751 0001798  50.2632 309.8515 15.06386843 71991","MEAN_MOTION_DOT":"-0.00001131","NORAD_CAT_ID":"47606","GP_ID":"204328486","TLE_LINE1":"1 47606U 21009BL  22143.41166209 -.00001131  00000-0 -57043-4 0  9997","EPOCH":"2022-05-23T09:52:47.604576","SITE":"AFETR","APOAPSIS":"548.499","TIME_SYSTEM":"UTC","INCLINATION":"53.0557","CLASSIFICATION_TYPE":"U","MEAN_ANOMALY":"309.8515","CENTER_NAME":"EARTH","RA_OF_ASC_NODE":"114.8751","LAUNCH_DATE":"2021-02-04","BSTAR":"-0.00005704300000","SEMIMAJOR_AXIS":"6925.389"},{"ARG_OF_PERICENTER":"45.5022","REF_FRAME":"TEME","PERIAPSIS":"545.452","ECCENTRICITY":"0.00025920","MEAN_MOTION":"15.06388980","OBJECT_TYPE":"PAYLOAD","MEAN_ELEMENT_THEORY":"SGP4","EPHEMERIS_TYPE":"0","TLE_LINE2":"2 47607  53.0573 113.7720 0002592  45.5022 314.6179 15.06388980 72026","MEAN_MOTION_DOT":"0.00001194","FILE":"3460905","ELEMENT_SET_NO":"999","COUNTRY_CODE":"US","DECAY_DATE":null,"REV_AT_EPOCH":"7202","OBJECT_ID":"2021-009BM","MEAN_MOTION_DDOT":"0.0000000000000","OBJECT_NAME":"STARLINK-2025","RCS_SIZE":"LARGE","PERIOD":"95.593","TIME_SYSTEM":"UTC","INCLINATION":"53.0573","APOAPSIS":"549.042","EPOCH":"2022-05-23T15:43:06.306240","SITE":"AFETR","TLE_LINE1":"1 47607U 21009BM  22143.65493410  .00001194  00000-0  99065-4 0  9998","GP_ID":"204365851","NORAD_CAT_ID":"47607","SEMIMAJOR_AXIS":"6925.382","BSTAR":"0.00009906500000","CENTER_NAME":"EARTH","RA_OF_ASC_NODE":"113.7720","LAUNCH_DATE":"2021-02-04","CLASSIFICATION_TYPE":"U","MEAN_ANOMALY":"314.6179"},{"CLASSIFICATION_TYPE":"U","MEAN_ANOMALY":"307.0434","CENTER_NAME":"EARTH","RA_OF_ASC_NODE":"173.0973","LAUNCH_DATE":"2021-02-16","BSTAR":"0.00010678000000","SEMIMAJOR_AXIS":"6925.366","NORAD_CAT_ID":"47620","GP_ID":"204334568","TLE_LINE1":"1 47620U 21012A   22143.80421893  .00001309  00000-0  10678-3 0  9990","EPOCH":"2022-05-23T19:18:04.515552","SITE":"AFETR","APOAPSIS":"548.483","TIME_SYSTEM":"UTC","INCLINATION":"53.0537","PERIOD":"95.593","RCS_SIZE":"LARGE","OBJECT_NAME":"STARLINK-1528","OBJECT_ID":"2021-012A","MEAN_MOTION_DDOT":"0.0000000000000","DECAY_DATE":null,"COUNTRY_CODE":"US","REV_AT_EPOCH":"7058","ELEMENT_SET_NO":"999","EPHEMERIS_TYPE":"0","MEAN_ELEMENT_THEORY":"SGP4","MEAN_MOTION_DOT":"0.00001309","TLE_LINE2":"2 47620  53.0537 173.0973 0001807  53.0720 307.0434 15.06394175 70589","FILE":"3460476","OBJECT_TYPE":"PAYLOAD","MEAN_MOTION":"15.06394175","ECCENTRICITY":"0.00018070","PERIAPSIS":"545.980","ARG_OF_PERICENTER":"53.0720","REF_FRAME":"TEME"},{"ELEMENT_SET_NO":"999","MEAN_ELEMENT_THEORY":"SGP4","EPHEMERIS_TYPE":"0","TLE_LINE2":"2 47621  53.0527 173.1389 0002181  37.9237 322.1905 15.06395178 71105","FILE":"3460905","MEAN_MOTION_DOT":"0.00002044","OBJECT_ID":"2021-012B","MEAN_MOTION_DDOT":"0.0000000000000","DECAY_DATE":null,"COUNTRY_CODE":"US","REV_AT_EPOCH":"7110","OBJECT_NAME":"STARLINK-1609","RCS_SIZE":"LARGE","PERIOD":"95.592","PERIAPSIS":"545.718","ARG_OF_PERICENTER":"37.9237","REF_FRAME":"TEME","ECCENTRICITY":"0.00021810","MEAN_MOTION":"15.06395178","OBJECT_TYPE":"PAYLOAD","SEMIMAJOR_AXIS":"6925.363","BSTAR":"0.00015614000000","CLASSIFICATION_TYPE":"U","MEAN_ANOMALY":"322.1905","CENTER_NAME":"EARTH","RA_OF_ASC_NODE":"173.1389","LAUNCH_DATE":"2021-02-16","APOAPSIS":"548.739","TIME_SYSTEM":"UTC","INCLINATION":"53.0527","EPOCH":"2022-05-23T19:07:27.235200","SITE":"AFETR","GP_ID":"204365104","TLE_LINE1":"1 47621U 21012B   22143.79684300  .00002044  00000-0  15614-3 0  9995","NORAD_CAT_ID":"47621"}];
